start=new Date('2022-12-09T00:00:00.000Z').valueOf();
sats=[{"REF_FRAME":"TEME","MEAN_MOTION_DOT":"0.00006147","GP_ID":"219784788","CENTER_NAME":"EARTH","INCLINATION":"53.0546","COUNTRY_CODE":"US","SEMIMAJOR_AXIS":"6925.006","PERIOD":"95.585","RA_OF_ASC_NODE":"172.5053","MEAN_ELEMENT_THEORY":"SGP4","MEAN_ANOMALY":"112.6007","PERIAPSIS":"545.968","EPOCH":"2022-12-08T05:50:08.900448","EPHEMERIS_TYPE":"0","LAUNCH_DATE":"2021-03-11","OBJECT_TYPE":"PAYLOAD","NORAD_CAT_ID":"47827","ARG_OF_PERICENTER":"247.4844","APOAPSIS":"547.774","TIME_SYSTEM":"UTC","BSTAR":"0.00042990000000","TLE_LINE2":"2 47827  53.0546 172.5053 0001304 247.4844 112.6007 15.06511765 97423","RCS_SIZE":"LARGE","TLE_LINE1":"1 47827U 21018AS  22342.24315857  .00006147  00000-0  42990-3 0  9993","REV_AT_EPOCH":"9742","CLASSIFICATION_TYPE":"U","DECAY_DATE":null,"MEAN_MOTION":"15.06511765","ECCENTRICITY":"0.00013040","ELEMENT_SET_NO":"999","OBJECT_NAME":"STARLINK-2413","FILE":"3684840","SITE":"AFETR","OBJECT_ID":"2021-018AS","MEAN_MOTION_DDOT":"0.0000000000000"},{"OBJECT_TYPE":"PAYLOAD","NORAD_CAT_ID":"47828","EPHEMERIS_TYPE":"0","LAUNCH_DATE":"2021-03-11","PERIAPSIS":"545.920","EPOCH":"2022-12-08T07:28:24.612672","MEAN_ANOMALY":"304.5697","RA_OF_ASC_NODE":"191.9768","PERIOD":"95.592","MEAN_ELEMENT_THEORY":"SGP4","INCLINATION":"53.0548","SEMIMAJOR_AXIS":"6925.348","COUNTRY_CODE":"US","CENTER_NAME":"EARTH","GP_ID":"219784416","MEAN_MOTION_DOT":"0.00000360","REF_FRAME":"TEME","MEAN_MOTION_DDOT":"0.0000000000000","OBJECT_ID":"2021-018AT","SITE":"AFETR","FILE":"3684840","OBJECT_NAME":"STARLINK-2415","ECCENTRICITY":"0.00018660","ELEMENT_SET_NO":"999","DECAY_DATE":null,"MEAN_MOTION":"15.06400295","CLASSIFICATION_TYPE":"U","REV_AT_EPOCH":"9715","TLE_LINE1":"1 47828U 21018AT  22342.31139598  .00000360  00000-0  43079-4 0  9999","RCS_SIZE":"LARGE","TLE_LINE2":"2 47828  53.0548 191.9768 0001866  55.5468 304.5697 15.06400295 97159","BSTAR":"0.00004307900000","TIME_SYSTEM":"UTC","ARG_OF_PERICENTER":"55.5468","APOAPSIS":"548.505"},{"REF_FRAME":"TEME","MEAN_MOTION_DOT":"0.00001165","GP_ID":"219774633","CENTER_NAME":"EARTH","COUNTRY_CODE":"US","SEMIMAJOR_AXIS":"6925.336","INCLINATION":"53.0550","MEAN_ELEMENT_THEORY":"SGP4","RA_OF_ASC_NODE":"191.8909","PERIOD":"95.592","PERIAPSIS":"545.815","MEAN_ANOMALY":"306.2187","EPOCH":"2022-12-08T07:54:56.488608","LAUNCH_DATE":"2021-03-11","EPHEMERIS_TYPE":"0","NORAD_CAT_ID":"47829","OBJECT_TYPE":"PAYLOAD","APOAPSIS":"548.587","ARG_OF_PERICENTER":"53.8987","TIME_SYSTEM":"UTC","BSTAR":"0.00009706800000","TLE_LINE2":"2 47829  53.0550 191.8909 0002001  53.8987 306.2187 15.06404080 97483","RCS_SIZE":"MEDIUM","TLE_LINE1":"1 47829U 21018AU  22342.32982047  .00001165  00000-0  97068-4 0  9997","REV_AT_EPOCH":"9748","MEAN_MOTION":"15.06404080","DECAY_DATE":null,"CLASSIFICATION_TYPE":"U","ELEMENT_SET_NO":"999","ECCENTRICITY":"0.00020010","OBJECT_NAME":"STARLINK-2416","FILE":"3684614","SITE":"AFETR","OBJECT_ID":"2021-018AU","MEAN_MOTION_DDOT":"0.0000000000000"},{"TIME_SYSTEM":"UTC","ARG_OF_PERICENTER":"63.6205","APOAPSIS":"548.416","RCS_SIZE":"LARGE","TLE_LINE2":"2 47830  53.0541 193.3969 0001729  63.6205 296.4961 15.06398346 97438","BSTAR":"0.00000076443000","TLE_LINE1":"1 47830U 21018AV  22341.99440841 -.00000270  00000-0  76443-6 0  9995","CLASSIFICATION_TYPE":"U","DECAY_DATE":null,"MEAN_MOTION":"15.06398346","REV_AT_EPOCH":"9743","OBJECT_NAME":"STARLINK-2419","ECCENTRICITY":"0.00017290","ELEMENT_SET_NO":"999","FILE":"3684614","SITE":"AFETR","MEAN_MOTION_DDOT":"0.0000000000000","OBJECT_ID":"2021-018AV","REF_FRAME":"TEME","MEAN_MOTION_DOT":"-0.00000270","GP_ID":"219774876","CENTER_NAME":"EARTH","PERIOD":"95.592","RA_OF_ASC_NODE":"193.3969","MEAN_ELEMENT_THEORY":"SGP4","INCLINATION":"53.0541","COUNTRY_CODE":"US","SEMIMAJOR_AXIS":"6925.354","PERIAPSIS":"546.021","MEAN_ANOMALY":"296.4961","EPOCH":"2022-12-07T23:51:56.886624","NORAD_CAT_ID":"47830","OBJECT_TYPE":"PAYLOAD","EPHEMERIS_TYPE":"0","LAUNCH_DATE":"2021-03-11"},{"OBJECT_NAME":"STARLINK-2420","ECCENTRICITY":"0.00012460","ELEMENT_SET_NO":"999","FILE":"3684925","SITE":"AFETR","MEAN_MOTION_DDOT":"0.0000000000000","OBJECT_ID":"2021-018AW","TIME_SYSTEM":"UTC","ARG_OF_PERICENTER":"42.9489","APOAPSIS":"548.080","TLE_LINE2":"2 47831  53.0541 164.8144 0001246  42.9489 317.1597 15.06398855 97964","RCS_SIZE":"LARGE","BSTAR":"0.00001105700000","TLE_LINE1":"1 47831U 21018AW  22342.79102751 -.00000117  00000-0  11057-4 0  9998","MEAN_MOTION":"15.06398855","DECAY_DATE":null,"CLASSIFICATION_TYPE":"U","REV_AT_EPOCH":"9796","CENTER_NAME":"EARTH","PERIOD":"95.592","RA_OF_ASC_NODE":"164.8144","MEAN_ELEMENT_THEORY":"SGP4","INCLINATION":"53.0541","SEMIMAJOR_AXIS":"6925.352","COUNTRY_CODE":"US","EPOCH":"2022-12-08T18:59:04.776864","PERIAPSIS":"546.354","MEAN_ANOMALY":"317.1597","OBJECT_TYPE":"PAYLOAD","NORAD_CAT_ID":"47831","EPHEMERIS_TYPE":"0","LAUNCH_DATE":"2021-03-11","REF_FRAME":"TEME","MEAN_MOTION_DOT":"-0.00000117","GP_ID":"219808318"},{"BSTAR":"0.00006591000000","RCS_SIZE":"LARGE","TLE_LINE2":"2 47832  53.0549 180.9131 0001889  53.9410 306.1754 15.06397624 97334","APOAPSIS":"548.529","ARG_OF_PERICENTER":"53.9410","TIME_SYSTEM":"UTC","REV_AT_EPOCH":"9733","DECAY_DATE":null,"MEAN_MOTION":"15.06397624","CLASSIFICATION_TYPE":"U","TLE_LINE1":"1 47832U 21018AX  22342.54822048  .00000700  00000-0  65910-4 0  9994","FILE":"3684760","ELEMENT_SET_NO":"999","ECCENTRICITY":"0.00018890","OBJECT_NAME":"STARLINK-2422","OBJECT_ID":"2021-018AX","MEAN_MOTION_DDOT":"0.0000000000000","SITE":"AFETR","MEAN_MOTION_DOT":"0.00000700","REF_FRAME":"TEME","GP_ID":"219782244","COUNTRY_CODE":"US","SEMIMAJOR_AXIS":"6925.356","INCLINATION":"53.0549","MEAN_ELEMENT_THEORY":"SGP4","RA_OF_ASC_NODE":"180.9131","PERIOD":"95.592","CENTER_NAME":"EARTH","LAUNCH_DATE":"2021-03-11","EPHEMERIS_TYPE":"0","OBJECT_TYPE":"PAYLOAD","NORAD_CAT_ID":"47832","MEAN_ANOMALY":"306.1754","PERIAPSIS":"545.913","EPOCH":"2022-12-08T13:09:26.249472"},{"REV_AT_EPOCH":"9763","DECAY_DATE":null,"MEAN_MOTION":"15.06397965","CLASSIFICATION_TYPE":"U","TLE_LINE1":"1 47833U 21018AY  22341.97690150 -.00001035  00000-0 -50569-4 0  9996","BSTAR":"-0.00005056900000","TLE_LINE2":"2 47833  53.0536 183.4657 0002125  51.7818 308.3362 15.06397965 97634","RCS_SIZE":"LARGE","ARG_OF_PERICENTER":"51.7818","APOAPSIS":"548.691","TIME_SYSTEM":"UTC","OBJECT_ID":"2021-018AY","MEAN_MOTION_DDOT":"0.0000000000000","SITE":"AFETR","FILE":"3684614","ECCENTRICITY":"0.00021250","ELEMENT_SET_NO":"999","OBJECT_NAME":"STARLINK-2423","GP_ID":"219775134","MEAN_MOTION_DOT":"-0.00001035","REF_FRAME":"TEME","EPHEMERIS_TYPE":"0","LAUNCH_DATE":"2021-03-11","OBJECT_TYPE":"PAYLOAD","NORAD_CAT_ID":"47833","EPOCH":"2022-12-07T23:26:44.289600","PERIAPSIS":"545.748","MEAN_ANOMALY":"308.3362","INCLINATION":"53.0536","COUNTRY_CODE":"US","SEMIMAJOR_AXIS":"6925.355","RA_OF_ASC_NODE":"183.4657","PERIOD":"95.592","MEAN_ELEMENT_THEORY":"SGP4","CENTER_NAME":"EARTH"},{"GP_ID":"219784664","MEAN_MOTION_DOT":"-0.00000326","REF_FRAME":"TEME","NORAD_CAT_ID":"47834","OBJECT_TYPE":"PAYLOAD","LAUNCH_DATE":"2021-03-11","EPHEMERIS_TYPE":"0","PERIAPSIS":"545.932","EPOCH":"2022-12-08T06:04:49.177344","MEAN_ANOMALY":"308.2783","MEAN_ELEMENT_THEORY":"SGP4","RA_OF_ASC_NODE":"182.2337","PERIOD":"95.593","COUNTRY_CODE":"US","SEMIMAJOR_AXIS":"6925.368","INCLINATION":"53.0553","CENTER_NAME":"EARTH","DECAY_DATE":null,"MEAN_MOTION":"15.06393782","CLASSIFICATION_TYPE":"U","REV_AT_EPOCH":"9728","TLE_LINE1":"1 47834U 21018AZ  22342.25334696 -.00000326  00000-0 -29624-5 0  9990","TLE_LINE2":"2 47834  53.0553 182.2337 0001878  51.8375 308.2783 15.06393782 97289","RCS_SIZE":"LARGE","BSTAR":"-0.00000296240000","TIME_SYSTEM":"UTC","APOAPSIS":"548.533","ARG_OF_PERICENTER":"51.8375","MEAN_MOTION_DDOT":"0.0000000000000","OBJECT_ID":"2021-018AZ","SITE":"AFETR","FILE":"3684868","OBJECT_NAME":"STARLINK-2424","ELEMENT_SET_NO":"999","ECCENTRICITY":"0.00018780"},{"OBJECT_ID":"2021-018BA","MEAN_MOTION_DDOT":"0.0000000000000","SITE":"AFETR","FILE":"3684614","ELEMENT_SET_NO":"999","ECCENTRICITY":"0.00014720","OBJECT_NAME":"STARLINK-2425","REV_AT_EPOCH":"9758","CLASSIFICATION_TYPE":"U","DECAY_DATE":null,"MEAN_MOTION":"15.06392710","TLE_LINE1":"1 47835U 21018BA  22342.54593378  .00001215  00000-0  10048-3 0  9991","BSTAR":"0.00010048000000","RCS_SIZE":"LARGE","TLE_LINE2":"2 47835  53.0547 186.0493 0001472  73.8467 286.2684 15.06392710 97582","APOAPSIS":"548.255","ARG_OF_PERICENTER":"73.8467","TIME_SYSTEM":"UTC","LAUNCH_DATE":"2021-03-11","EPHEMERIS_TYPE":"0","OBJECT_TYPE":"PAYLOAD","NORAD_CAT_ID":"47835","EPOCH":"2022-12-08T13:06:08.678592","PERIAPSIS":"546.216","MEAN_ANOMALY":"286.2684","SEMIMAJOR_AXIS":"6925.371","COUNTRY_CODE":"US","INCLINATION":"53.0547","MEAN_ELEMENT_THEORY":"SGP4","PERIOD":"95.593","RA_OF_ASC_NODE":"186.0493","CENTER_NAME":"EARTH","GP_ID":"219774134","MEAN_MOTION_DOT":"0.00001215","REF_FRAME":"TEME"},{"CENTER_NAME":"EARTH","SEMIMAJOR_AXIS":"6925.355","COUNTRY_CODE":"US","INCLINATION":"53.0540","MEAN_ELEMENT_THEORY":"SGP4","RA_OF_ASC_NODE":"182.2345","PERIOD":"95.592","PERIAPSIS":"546.012","MEAN_ANOMALY":"308.0737","EPOCH":"2022-12-08T06:31:20.807040","LAUNCH_DATE":"2021-03-11","EPHEMERIS_TYPE":"0","OBJECT_TYPE":"PAYLOAD","NORAD_CAT_ID":"47836","REF_FRAME":"TEME","MEAN_MOTION_DOT":"0.00000857","GP_ID":"219774383","ELEMENT_SET_NO":"999","ECCENTRICITY":"0.00017440","OBJECT_NAME":"STARLINK-2426","FILE":"3684614","SITE":"AFETR","OBJECT_ID":"2021-018BB","MEAN_MOTION_DDOT":"0.0000000000000","APOAPSIS":"548.428","ARG_OF_PERICENTER":"52.0410","TIME_SYSTEM":"UTC","BSTAR":"0.00007644000000","RCS_SIZE":"LARGE","TLE_LINE2":"2 47836  53.0540 182.2345 0001744  52.0410 308.0737 15.06397975 97624","TLE_LINE1":"1 47836U 21018BB  22342.27176860  .00000857  00000-0  76440-4 0  9995","REV_AT_EPOCH":"9762","MEAN_MOTION":"15.06397975","DECAY_DATE":null,"CLASSIFICATION_TYPE":"U"}];
